LEMUR-2-DEMBITZ         
1 42842U 17042T   26068.47492167  .00020231  00000+0  76561-3 0  9991
2 42842  97.3807 250.9241 0006961  17.1421 343.0051 15.26947128473114
STARLINK-32660          
1 62205U 24229P   26068.81106254  .00021105  00000+0  77438-3 0  9993
2 62205  42.9980 255.8344 0001694 268.9624  91.1033 15.27574209 70744
